0 FENGYUN 1C DEB
1 35180U 99025DNL 13282.57521040  .00003569  00000-0  21510-2 0  2461
2 35180 099.7390 175.4524 0657349 281.1176 071.6406 13.33003784289010
0 FENGYUN 1C DEB
1 35180U 99025DNL 13283.92621122  .00003510  00000-0  21312-2 0  2470
2 35180 099.7397 176.7485 0655503 277.8186 074.8296 13.33011123289197
0 FENGYUN 1C DEB
1 35180U 99025DNL 13288.50457370  .00003366  00000-0  20368-2 0  2492
2 35180 099.7346 181.1233 0656345 266.6707 085.8088 13.33038523289804
0 FENGYUN 1C DEB
1 35180U 99025DNL 13290.53106602  .00003234  00000-0  19613-2 0  2504
2 35180 099.7345 183.0605 0655867 261.7425 090.8085 13.33048474290078
0 FENGYUN 1C DEB
1 35180U 99025DNL 13295.48465195  .00003084  00000-0  18807-2 0  2516
2 35180 099.7273 187.7909 0654444 250.1114 102.6511 13.33075843290732
